NORAD_CAT_ID,OBJECT_NAME,OBJECT_TYPE,EPOCH,MEAN_MOTION,ECCENTRICITY,INCLINATION,RA_OF_ASC_NODE,ARG_OF_PERICENTER,MEAN_ANOMALY,BSTAR,MEAN_MOTION_DOT,MEAN_MOTION_DDOT,TLE_LINE0,TLE_LINE1,TLE_LINE2,SEMIMAJOR_AXIS,PERIOD,APOGEE,PERIGEE,DECAYED
52865.0,STARLINK-4274,PAYLOAD,2022-10-17 14:00:01,15.08816933,0.0001629999999999,53.2173,186.6801,61.0264,19.396,0.0040621,0.00064915,0.0,0 STARLINK-4274,1 52865U 22062AM  22290.58334491  .00064915  00000-0  40621-2 0  9990,2 52865  53.2173 186.6801 0001630  61.0264  19.3960 15.08816933  1304,6917.951,95.439,540.944,538.688,0.0
52865.0,STARLINK-4274,PAYLOAD,2022-10-17 22:00:00,15.08887009,0.0001740999999999,53.2177,185.1854,57.1148,34.9053,-0.0033696999999999,-0.00053587,0.0,0 STARLINK-4274,1 52865U 22062AM  22290.91667824 -.00053587  00000-0 -33697-2 0  9996,2 52865  53.2177 185.1854 0001741  57.1148  34.9053 15.08887009  1308,6917.736999999999,95.435,540.806,538.3969999999998,0.0
52865.0,STARLINK-4274,PAYLOAD,2022-10-18 00:00:00,15.08871916,0.0001774999999999,53.2177,184.8117,55.3114,129.6207,-0.0020748,-0.00033186,0.0,0 STARLINK-4274,1 52865U 22062AM  22291.00001157 -.00033186  00000-0 -20748-2 0  9994,2 52865  53.2177 184.8117 0001775  55.3114 129.6207 15.08871916 19421,6917.783,95.436,540.876,538.42,0.0
52865.0,STARLINK-4274,PAYLOAD,2022-10-18 14:00:01,15.08796595,0.0001521999999999,53.2176,182.1916,55.1457,60.0749,0.0035626,0.0005679999999999,0.0,0 STARLINK-4274,1 52865U 22062AM  22291.58334491  .00056800  00000-0  35626-2 0  9994,2 52865  53.2176 182.1916 0001522  55.1457  60.0749 15.08796595 19503,6918.013000000001,95.44,540.931,538.825,0.0
52865.0,STARLINK-4274,PAYLOAD,2022-10-18 22:00:00,15.0883924,0.0001708,53.2178,180.6967,52.4923,74.291,-0.00080649,-0.000131,0.0,0 STARLINK-4274,1 52865U 22062AM  22291.91667824 -.00013100  00000-0 -80649-3 0  9994,2 52865  53.2178 180.6967 0001708  52.4923  74.2910 15.08839240  1309,6917.8830000000025,95.438,540.929,538.566,0.0
52865.0,STARLINK-4274,PAYLOAD,2022-10-19 08:00:01,15.08861255,0.0001693,53.218,178.826,50.2182,181.0473,-0.0013507,-0.00021733,0.0,0 STARLINK-4274,1 52865U 22062AM  22292.33334491 -.00021733  00000-0 -13507-2 0  9991,2 52865  53.2180 178.8260 0001693  50.2182 181.0473 15.08861255 19629,6917.815,95.436,540.852,538.509,0.0
52865.0,STARLINK-4274,PAYLOAD,2022-10-19 14:00:01,15.08844424,0.0001582,53.2181,177.7027,54.8088,95.1696,0.00061329,9.487e-05,0.0,0 STARLINK-4274,1 52865U 22062AM  22292.58334491  .00009487  00000-0  61329-3 0  9994,2 52865  53.2181 177.7027 0001582  54.8088  95.1696 15.08844424  1308,6917.8669999999975,95.437,540.826,538.637,0.0
52865.0,STARLINK-4274,PAYLOAD,2022-10-19 22:00:00,15.08844932,0.0001717,53.2184,176.2079,50.9436,110.6412,-0.0004956,-8.168e-05,0.0,0 STARLINK-4274,1 52865U 22062AM  22292.91667824 -.00008168  00000-0 -49560-3 0  9990,2 52865  53.2184 176.2079 0001717  50.9436 110.6412 15.08844932  1309,6917.865,95.437,540.918,538.543,0.0
52865.0,STARLINK-4274,PAYLOAD,2022-10-20 08:00:01,15.08864586,0.0001748,53.2186,174.33700000000005,50.8109,215.2626,-0.0039279,-0.00062303,0.0,0 STARLINK-4274,1 52865U 22062AM  22293.33334491 -.00062303  00000-0 -39279-2 0  9994,2 52865  53.2186 174.3370 0001748  50.8109 215.2626 15.08864586 19770,6917.805,95.436,540.879,538.461,0.0
52865.0,STARLINK-4274,PAYLOAD,2022-10-20 14:00:01,15.08811739,0.0001701,53.2184,173.213,57.5046,127.2767,0.0029693,0.00047249,0.0,0 STARLINK-4274,1 52865U 22062AM  22293.58334491  .00047249  00000-0  29693-2 0  9990,2 52865  53.2184 173.2130 0001701  57.5046 127.2767 15.08811739  1303,6917.967,95.439,541.009,538.655,0.0
52865.0,STARLINK-4274,PAYLOAD,2022-10-20 22:00:00,15.08843683,0.0001878,53.2189,171.7189,53.229,143.1302,-0.00043805,-7.254e-05,0.0,0 STARLINK-4274,1 52865U 22062AM  22293.91667824 -.00007254  00000-0 -43805-3 0  9992,2 52865  53.2189 171.7189 0001878  53.2290 143.1302 15.08843683  1309,6917.869000000002,95.437,541.033,538.435,0.0
52865.0,STARLINK-4274,PAYLOAD,2022-10-21 14:00:01,15.08823296,0.0001654,53.2186,168.7242,57.6901,161.8837,0.0018998,0.00030063,0.0,0 STARLINK-4274,1 52865U 22062AM  22294.58334491  .00030063  00000-0  18998-2 0  9993,2 52865  53.2186 168.7242 0001654  57.6901 161.8837 15.08823296  1309,6917.931,95.439,540.941,538.6519999999998,0.0
52865.0,STARLINK-4274,PAYLOAD,2022-10-21 22:00:00,15.08841214,0.00018,53.219,167.2304,51.7191,179.4425,-0.00026556,-4.512e-05,0.0,0 STARLINK-4274,1 52865U 22062AM  22294.91667824 -.00004512  00000-0 -26556-3 0  9991,2 52865  53.2190 167.2304 0001800  51.7191 179.4425 15.08841214  1304,6917.877,95.437,540.987,538.496,0.0
52865.0,STARLINK-4274,PAYLOAD,2022-10-22 14:00:01,15.08810567,0.0001561999999999,53.2189,164.2363,55.6806,198.6774,0.00259,0.00041139,0.0,0 STARLINK-4274,1 52865U 22062AM  22295.58334491  .00041139  00000-0  25900-2 0  9991,2 52865  53.2189 164.2363 0001562  55.6806 198.6774 15.08810567  1302,6917.97,95.439,540.9159999999998,538.755,0.0
52865.0,STARLINK-4274,PAYLOAD,2022-10-22 22:00:00,15.0883861,0.0001719,53.2187,162.7418,50.7843,215.1569,0.00016099,2.275e-05,0.0,0 STARLINK-4274,1 52865U 22062AM  22295.91667824  .00002275  00000-0  16099-3 0  9995,2 52865  53.2187 162.7418 0001719  50.7843 215.1569 15.08838610  1301,6917.885,95.438,540.939,538.56,0.0
52865.0,STARLINK-4274,PAYLOAD,2022-10-23 00:00:02,15.08828352,0.0001749,53.2188,162.368,50.1671,308.738,0.0019084,0.00030205,0.0,0 STARLINK-4274,1 52865U 22062AM  22296.00002315  .00030205  00000-0  19084-2 0  9994,2 52865  53.2188 162.3680 0001749  50.1671 308.7380 15.08828352 20173,6917.916,95.438,540.991,538.571,0.0
52865.0,STARLINK-4274,PAYLOAD,2022-10-23 14:00:01,15.08848403,0.0001561,53.2183,159.7475,57.8764,231.2771,0.0021447,0.00034018,0.0,0 STARLINK-4274,1 52865U 22062AM  22296.58334491  .00034018  00000-0  21447-2 0  9992,2 52865  53.2183 159.7475 0001561  57.8764 231.2771 15.08848403  1306,6917.855,95.437,540.8,538.64,0.0
52865.0,STARLINK-4274,PAYLOAD,2022-10-23 22:00:00,15.08861675,0.0001696,53.218,158.2529,51.4901,249.285,-0.0028136,-0.00044815,0.0,0 STARLINK-4274,1 52865U 22062AM  22296.91667824 -.00044815  00000-0 -28136-2 0  9998,2 52865  53.2180 158.2529 0001696  51.4901 249.2850 15.08861675  1302,6917.814,95.436,540.852,538.506,0.0
52865.0,STARLINK-4274,PAYLOAD,2022-10-24 14:00:01,15.08779252,0.0001517,53.2175,155.2586,57.2303,266.7257,0.0020603,0.00032599,0.0,0 STARLINK-4274,1 52865U 22062AM  22297.58334491  .00032599  00000-0  20603-2 0  9998,2 52865  53.2175 155.2586 0001517  57.2303 266.7257 15.08779252  1302,6918.066,95.441,540.981,538.882,0.0
52865.0,STARLINK-4274,PAYLOAD,2022-10-24 22:00:00,15.08793893,0.0001648,53.2173,153.7642,49.5724,285.9193,0.0022987,0.00036439,0.0,0 STARLINK-4274,1 52865U 22062AM  22297.91667824  .00036439  00000-0  22987-2 0  9998,2 52865  53.2173 153.7642 0001648  49.5724 285.9193 15.08793893  1301,6918.021,95.44,541.026,538.746,0.0
52865.0,STARLINK-4274,PAYLOAD,2022-10-25 00:00:00,15.08793571,0.0001639,53.2173,153.3904,47.8763,20.5032,0.0032354,0.00051514,0.0,0 STARLINK-4274,1 52865U 22062AM  22298.00001157  .00051514  00000-0  32354-2 0  9990,2 52865  53.2173 153.3904 0001639  47.8763  20.5032 15.08793571 20479,6918.022,95.44,541.021,538.753,0.0
52865.0,STARLINK-4274,PAYLOAD,2022-10-25 14:00:01,15.08820635,0.0001513,53.217,150.7697,55.582,303.0420000000001,0.0017840999999999,0.00028205,0.0,0 STARLINK-4274,1 52865U 22062AM  22298.58334491  .00028205  00000-0  17841-2 0  9998,2 52865  53.2170 150.7697 0001513  55.5820 303.0420 15.08820635 20569,6917.94,95.439,540.851,538.758,0.0
52865.0,STARLINK-4274,PAYLOAD,2022-10-25 22:00:01,15.08828238,0.0001713,53.2168,149.275,49.2895,320.9834,0.00035611,5.382e-05,0.0,0 STARLINK-4274,1 52865U 22062AM  22298.91668981  .00005382  00000-0  35611-3 0  9996,2 52865  53.2168 149.2750 0001713  49.2895 320.9834 15.08828238  1308,6917.916,95.438,540.966,538.596,0.0
52865.0,STARLINK-4274,PAYLOAD,2022-10-26 08:00:01,15.08838178,0.0001584,53.2169,147.4031,51.6015,63.1566,-4.6265e-05,-1.024e-05,0.0,0 STARLINK-4274,1 52865U 22062AM  22299.33335648 -.00001024  00000-0 -46265-4 0  9993,2 52865  53.2169 147.4031 0001584  51.6015  63.1566 15.08838178 20671,6917.886,95.438,540.847,538.655,0.0
52865.0,STARLINK-4274,PAYLOAD,2022-10-26 14:00:01,15.08838759,0.0001609,53.2169,146.2805,55.6768,337.711,0.0014597,0.00023019,0.0,0 STARLINK-4274,1 52865U 22062AM  22299.58334491  .00023019  00000-0  14597-2 0  9992,2 52865  53.2169 146.2805 0001609  55.6768 337.7110 15.08838759  1303,6917.884,95.438,540.862,538.636,0.0
52865.0,STARLINK-4274,PAYLOAD,2022-10-26 22:00:00,15.08834531,0.0001839,53.2172,144.7847,49.3842,355.6075,0.0010628,0.00016664,0.0,0 STARLINK-4274,1 52865U 22062AM  22299.91667824  .00016664  00000-0  10628-2 0  9997,2 52865  53.2172 144.7847 0001839  49.3842 355.6075 15.08834531  1307,6917.897,95.438,541.034,538.49,0.0
52865.0,STARLINK-4274,PAYLOAD,2022-10-27 08:00:01,15.08850695,0.0001663,53.2172,142.9138,52.1181,97.3836,0.00055176,8.507e-05,0.0,0 STARLINK-4274,1 52865U 22062AM  22300.33334491  .00008507  00000-0  55176-3 0  9992,2 52865  53.2172 142.9138 0001663  52.1181  97.3836 15.08850695 20836,6917.848000000001,95.437,540.863,538.562,0.0
52865.0,STARLINK-4274,PAYLOAD,2022-10-27 14:00:01,15.08859858,0.0001688,53.2173,141.7911,55.7136,12.5557,0.0010609,0.00016646,0.0,0 STARLINK-4274,1 52865U 22062AM  22300.58335648  .00016646  00000-0  10609-2 0  9998,2 52865  53.2173 141.7911 0001688  55.7136  12.5557 15.08859858  1309,6917.82,95.436,540.852,538.5169999999998,0.0
52865.0,STARLINK-4274,PAYLOAD,2022-10-27 22:00:00,15.08866041,0.0001831999999999,53.2174,140.2964,49.0625,30.7719,-0.0019984,-0.00031975,0.0,0 STARLINK-4274,1 52865U 22062AM  22300.91667824 -.00031975  00000-0 -19984-2 0  9998,2 52865  53.2174 140.2964 0001832  49.0625  30.7719 15.08866041  1306,6917.801,95.436,540.933,538.398,0.0
